STARLINK-5541           
1 56475U 23064AD  26068.52211651  .00002320  00000+0  20203-3 0  9993
2 56475  69.9994 124.9029 0003381 267.8014  92.2758 14.98353783155718
KORSAT-2                
1 62377U 24247A   26068.41070335  .00005163  00000+0  43498-3 0  9994
2 62377  45.4085 225.0391 0009773  57.7708 302.4117 14.99271316 66592
